start=new Date('2022-12-07T00:00:00.000Z').valueOf();
sats=[{"OBJECT_TYPE":"PAYLOAD","DECAY_DATE":null,"RCS_SIZE":"LARGE","TIME_SYSTEM":"UTC","TLE_LINE2":"2 45194  53.0559 345.1272 0001774  64.2923 295.8249 15.06399041154660","COUNTRY_CODE":"US","INCLINATION":"53.0559","CENTER_NAME":"EARTH","SEMIMAJOR_AXIS":"6925.351","MEAN_ANOMALY":"295.8249","MEAN_MOTION_DOT":"-0.00001652","BSTAR":"-0.00009202000000","TLE_LINE1":"1 45194U 20012S   22340.49376528 -.00001652  00000-0 -92020-4 0  9996","ELEMENT_SET_NO":"999","PERIOD":"95.592","FILE":"3682908","REV_AT_EPOCH":"15466","SITE":"AFETR","RA_OF_ASC_NODE":"345.1272","GP_ID":"219640208","OBJECT_ID":"2020-012S","LAUNCH_DATE":"2020-02-17","PERIAPSIS":"545.988","EPHEMERIS_TYPE":"0","NORAD_CAT_ID":"45194","MEAN_ELEMENT_THEORY":"SGP4","REF_FRAME":"TEME","MEAN_MOTION_DDOT":"0.0000000000000","ECCENTRICITY":"0.00017740","CLASSIFICATION_TYPE":"U","ARG_OF_PERICENTER":"64.2923","MEAN_MOTION":"15.06399041","EPOCH":"2022-12-06T11:51:01.320192","OBJECT_NAME":"STARLINK-1240","APOAPSIS":"548.445"},{"REV_AT_EPOCH":"15571","SITE":"AFETR","RA_OF_ASC_NODE":"335.8886","ELEMENT_SET_NO":"999","TLE_LINE1":"1 45195U 20012T   22340.34790481  .00030324  00000-0  14775-2 0  9994","BSTAR":"0.00147750000000","PERIOD":"94.855","FILE":"3683104","MEAN_MOTION_DOT":"0.00030324","SEMIMAJOR_AXIS":"6889.682","MEAN_ANOMALY":"307.9712","INCLINATION":"53.0512","CENTER_NAME":"EARTH","COUNTRY_CODE":"US","RCS_SIZE":"LARGE","DECAY_DATE":null,"TIME_SYSTEM":"UTC","TLE_LINE2":"2 45195  53.0512 335.8886 0003391  52.1589 307.9712 15.18112791155713","OBJECT_TYPE":"PAYLOAD","APOAPSIS":"513.883","OBJECT_NAME":"STARLINK-1241","ECCENTRICITY":"0.00033910","ARG_OF_PERICENTER":"52.1589","CLASSIFICATION_TYPE":"U","MEAN_MOTION":"15.18112791","EPOCH":"2022-12-06T08:20:58.975584","MEAN_ELEMENT_THEORY":"SGP4","MEAN_MOTION_DDOT":"0.0000000000000","REF_FRAME":"TEME","NORAD_CAT_ID":"45195","LAUNCH_DATE":"2020-02-17","PERIAPSIS":"509.210","EPHEMERIS_TYPE":"0","GP_ID":"219662884","OBJECT_ID":"2020-012T"},{"PERIAPSIS":"545.832","EPHEMERIS_TYPE":"0","LAUNCH_DATE":"2020-02-17","GP_ID":"219701287","OBJECT_ID":"2020-012U","MEAN_ELEMENT_THEORY":"SGP4","MEAN_MOTION_DDOT":"0.0000000000000","REF_FRAME":"TEME","NORAD_CAT_ID":"45196","OBJECT_NAME":"STARLINK-1244","EPOCH":"2022-12-06T17:46:38.165664","ECCENTRICITY":"0.00019940","CLASSIFICATION_TYPE":"U","ARG_OF_PERICENTER":"54.9093","MEAN_MOTION":"15.06400091","APOAPSIS":"548.594","TIME_SYSTEM":"UTC","TLE_LINE2":"2 45196  53.0568 344.0274 0001994  54.9093 305.2083 15.06400091154738","RCS_SIZE":"LARGE","DECAY_DATE":null,"OBJECT_TYPE":"PAYLOAD","CENTER_NAME":"EARTH","INCLINATION":"53.0568","COUNTRY_CODE":"US","MEAN_MOTION_DOT":"-0.00000314","MEAN_ANOMALY":"305.2083","SEMIMAJOR_AXIS":"6925.348","RA_OF_ASC_NODE":"344.0274","REV_AT_EPOCH":"15473","SITE":"AFETR","PERIOD":"95.592","FILE":"3683335","TLE_LINE1":"1 45196U 20012U   22340.74071951 -.00000314  00000-0 -21699-5 0  9997","ELEMENT_SET_NO":"999","BSTAR":"-0.00000216990000"},{"CENTER_NAME":"EARTH","INCLINATION":"53.0571","COUNTRY_CODE":"US","TLE_LINE2":"2 45197  53.0571 344.0728 0001838  59.9254 300.1917 15.06388236155601","TIME_SYSTEM":"UTC","RCS_SIZE":"LARGE","DECAY_DATE":null,"OBJECT_TYPE":"PAYLOAD","RA_OF_ASC_NODE":"344.0728","SITE":"AFETR","REV_AT_EPOCH":"15560","FILE":"3683274","PERIOD":"95.593","BSTAR":"0.00001726000000","TLE_LINE1":"1 45197U 20012V   22340.72967295 -.00000025  00000-0  17260-4 0  9997","ELEMENT_SET_NO":"999","MEAN_MOTION_DOT":"-0.00000025","MEAN_ANOMALY":"300.1917","SEMIMAJOR_AXIS":"6925.385","MEAN_MOTION_DDOT":"0.0000000000000","REF_FRAME":"TEME","MEAN_ELEMENT_THEORY":"SGP4","NORAD_CAT_ID":"45197","EPHEMERIS_TYPE":"0","PERIAPSIS":"545.977","LAUNCH_DATE":"2020-02-17","OBJECT_ID":"2020-012V","GP_ID":"219692352","APOAPSIS":"548.522","OBJECT_NAME":"STARLINK-1269","EPOCH":"2022-12-06T17:30:43.742880","ARG_OF_PERICENTER":"59.9254","CLASSIFICATION_TYPE":"U","MEAN_MOTION":"15.06388236","ECCENTRICITY":"0.00018380"},{"EPHEMERIS_TYPE":"0","PERIAPSIS":"545.983","LAUNCH_DATE":"2020-02-17","GP_ID":"219700019","OBJECT_ID":"2020-012W","REF_FRAME":"TEME","MEAN_MOTION_DDOT":"0.0000000000000","MEAN_ELEMENT_THEORY":"SGP4","NORAD_CAT_ID":"45198","OBJECT_NAME":"STARLINK-1154","EPOCH":"2022-12-06T15:41:54.723840","ARG_OF_PERICENTER":"54.8179","CLASSIFICATION_TYPE":"U","MEAN_MOTION":"15.06389585","ECCENTRICITY":"0.00018230","APOAPSIS":"548.508","TLE_LINE2":"2 45198  53.0569 324.4198 0001823  54.8179 305.2980 15.06389585154968","TIME_SYSTEM":"UTC","DECAY_DATE":null,"RCS_SIZE":"LARGE","OBJECT_TYPE":"PAYLOAD","CENTER_NAME":"EARTH","INCLINATION":"53.0569","COUNTRY_CODE":"US","MEAN_MOTION_DOT":"-0.00000879","MEAN_ANOMALY":"305.2980","SEMIMAJOR_AXIS":"6925.380","RA_OF_ASC_NODE":"324.4198","SITE":"AFETR","REV_AT_EPOCH":"15496","FILE":"3683289","PERIOD":"95.593","BSTAR":"-0.00004011900000","TLE_LINE1":"1 45198U 20012W   22340.65410560 -.00000879  00000-0 -40119-4 0  9995","ELEMENT_SET_NO":"999"},{"NORAD_CAT_ID":"45199","MEAN_ELEMENT_THEORY":"SGP4","MEAN_MOTION_DDOT":"0.0000000000000","REF_FRAME":"TEME","GP_ID":"219693351","OBJECT_ID":"2020-012X","PERIAPSIS":"546.191","EPHEMERIS_TYPE":"0","LAUNCH_DATE":"2020-02-17","APOAPSIS":"548.326","EPOCH":"2022-12-06T15:47:13.102656","ECCENTRICITY":"0.00015410","MEAN_MOTION":"15.06385343","CLASSIFICATION_TYPE":"U","ARG_OF_PERICENTER":"68.5671","OBJECT_NAME":"STARLINK-1197","COUNTRY_CODE":"US","CENTER_NAME":"EARTH","INCLINATION":"53.0568","OBJECT_TYPE":"PAYLOAD","TIME_SYSTEM":"UTC","TLE_LINE2":"2 45199  53.0568 324.4006 0001541  68.5671 291.5483 15.06385343155900","DECAY_DATE":null,"RCS_SIZE":"LARGE","PERIOD":"95.593","FILE":"3683274","ELEMENT_SET_NO":"999","TLE_LINE1":"1 45199U 20012X   22340.65779054  .00001958  00000-0  15038-3 0  9990","BSTAR":"0.00015038000000","RA_OF_ASC_NODE":"324.4006","REV_AT_EPOCH":"15590","SITE":"AFETR","MEAN_ANOMALY":"291.5483","SEMIMAJOR_AXIS":"6925.393","MEAN_MOTION_DOT":"0.00001958"},{"APOAPSIS":"548.524","OBJECT_NAME":"STARLINK-1199","EPOCH":"2022-12-06T15:57:50.212800","ECCENTRICITY":"0.00018250","CLASSIFICATION_TYPE":"U","ARG_OF_PERICENTER":"68.9410","MEAN_MOTION":"15.06384960","MEAN_ELEMENT_THEORY":"SGP4","MEAN_MOTION_DDOT":"0.0000000000000","REF_FRAME":"TEME","NORAD_CAT_ID":"45201","PERIAPSIS":"545.996","EPHEMERIS_TYPE":"0","LAUNCH_DATE":"2020-02-17","GP_ID":"219693586","OBJECT_ID":"2020-012Z","RA_OF_ASC_NODE":"324.3609","REV_AT_EPOCH":"15590","SITE":"AFETR","PERIOD":"95.593","FILE":"3683274","TLE_LINE1":"1 45201U 20012Z   22340.66516450  .00001383  00000-0  11177-3 0  9996","ELEMENT_SET_NO":"999","BSTAR":"0.00011177000000","MEAN_MOTION_DOT":"0.00001383","MEAN_ANOMALY":"291.1774","SEMIMAJOR_AXIS":"6925.395","CENTER_NAME":"EARTH","INCLINATION":"53.0575","COUNTRY_CODE":"US","TIME_SYSTEM":"UTC","TLE_LINE2":"2 45201  53.0575 324.3609 0001825  68.9410 291.1774 15.06384960155903","DECAY_DATE":null,"RCS_SIZE":"LARGE","OBJECT_TYPE":"PAYLOAD"},{"REV_AT_EPOCH":"15598","SITE":"AFETR","RA_OF_ASC_NODE":"314.2926","BSTAR":"0.00169320000000","TLE_LINE1":"1 45202U 20012AA  22340.40769257  .00043572  00000-0  16932-2 0  9993","ELEMENT_SET_NO":"999","PERIOD":"94.386","FILE":"3683104","MEAN_MOTION_DOT":"0.00043572","SEMIMAJOR_AXIS":"6866.988","MEAN_ANOMALY":"304.4421","INCLINATION":"52.9656","CENTER_NAME":"EARTH","COUNTRY_CODE":"US","DECAY_DATE":null,"RCS_SIZE":"LARGE","TIME_SYSTEM":"UTC","TLE_LINE2":"2 45202  52.9656 314.2926 0004954  55.7044 304.4421 15.25644312155981","OBJECT_TYPE":"PAYLOAD","APOAPSIS":"492.255","OBJECT_NAME":"STARLINK-1203","ECCENTRICITY":"0.00049540","CLASSIFICATION_TYPE":"U","ARG_OF_PERICENTER":"55.7044","MEAN_MOTION":"15.25644312","EPOCH":"2022-12-06T09:47:04.638048","MEAN_ELEMENT_THEORY":"SGP4","REF_FRAME":"TEME","MEAN_MOTION_DDOT":"0.0000000000000","NORAD_CAT_ID":"45202","LAUNCH_DATE":"2020-02-17","PERIAPSIS":"485.451","EPHEMERIS_TYPE":"0","GP_ID":"219664356","OBJECT_ID":"2020-012AA"},{"REF_FRAME":"TEME","MEAN_MOTION_DDOT":"0.0000000000000","MEAN_ELEMENT_THEORY":"SGP4","NORAD_CAT_ID":"45204","EPHEMERIS_TYPE":"0","PERIAPSIS":"546.019","LAUNCH_DATE":"2020-02-17","GP_ID":"219662635","OBJECT_ID":"2020-012AC","APOAPSIS":"548.410","OBJECT_NAME":"STARLINK-1206","EPOCH":"2022-12-06T08:37:17.139360","CLASSIFICATION_TYPE":"U","ARG_OF_PERICENTER":"59.9091","MEAN_MOTION":"15.06399750","ECCENTRICITY":"0.00017260","CENTER_NAME":"EARTH","INCLINATION":"53.0563","COUNTRY_CODE":"US","TLE_LINE2":"2 45204  53.0563 325.7360 0001726  59.9091 300.2069 15.06399750155875","TIME_SYSTEM":"UTC","DECAY_DATE":null,"RCS_SIZE":"LARGE","OBJECT_TYPE":"PAYLOAD","RA_OF_ASC_NODE":"325.7360","SITE":"AFETR","REV_AT_EPOCH":"15587","FILE":"3683104","PERIOD":"95.592","TLE_LINE1":"1 45204U 20012AC  22340.35922615  .00000488  00000-0  51665-4 0  9991","BSTAR":"0.00005166500000","ELEMENT_SET_NO":"999","MEAN_MOTION_DOT":"0.00000488","MEAN_ANOMALY":"300.2069","SEMIMAJOR_AXIS":"6925.349"},{"OBJECT_TYPE":"PAYLOAD","TIME_SYSTEM":"UTC","TLE_LINE2":"2 45205  53.0573 325.6235 0001442  57.6128 302.5001 15.06401532155882","RCS_SIZE":"LARGE","DECAY_DATE":null,"COUNTRY_CODE":"US","CENTER_NAME":"EARTH","INCLINATION":"53.0573","MEAN_ANOMALY":"302.5001","SEMIMAJOR_AXIS":"6925.344","MEAN_MOTION_DOT":"0.00000567","PERIOD":"95.592","FILE":"3683104","TLE_LINE1":"1 45205U 20012AD  22340.38133780  .00000567  00000-0  56959-4 0  9991","BSTAR":"0.00005695900000","ELEMENT_SET_NO":"999","RA_OF_ASC_NODE":"325.6235","REV_AT_EPOCH":"15588","SITE":"AFETR","GP_ID":"219662885","OBJECT_ID":"2020-012AD","PERIAPSIS":"546.210","EPHEMERIS_TYPE":"0","LAUNCH_DATE":"2020-02-17","NORAD_CAT_ID":"45205","MEAN_ELEMENT_THEORY":"SGP4","REF_FRAME":"TEME","MEAN_MOTION_DDOT":"0.0000000000000","EPOCH":"2022-12-06T09:09:07.585920","ECCENTRICITY":"0.00014420","CLASSIFICATION_TYPE":"U","ARG_OF_PERICENTER":"57.6128","MEAN_MOTION":"15.06401532","OBJECT_NAME":"STARLINK-1208","APOAPSIS":"548.207"}];
